start=new Date('2023-03-01T00:00:00.000Z').valueOf();
sats=[{"TIME_SYSTEM":"UTC","MEAN_MOTION_DOT":"0.00040901","LAUNCH_DATE":"2021-04-29","DECAY_DATE":null,"REV_AT_EPOCH":"10156","OBJECT_NAME":"STARLINK-2532","TLE_LINE1":"1 48308U 21036AJ  23059.29495773  .00040901  00000-0  27470-2 0  9996","ELEMENT_SET_NO":"999","TLE_LINE2":"2 48308  53.0548  13.9290 0001952 112.3445 247.7751 15.06424319101562","SEMIMAJOR_AXIS":"6925.274","MEAN_MOTION":"15.06424319","COUNTRY_CODE":"US","OBJECT_ID":"2021-036AJ","NORAD_CAT_ID":"48308","EPOCH":"2023-02-28T07:04:44.347872","RA_OF_ASC_NODE":"13.9290","MEAN_ELEMENT_THEORY":"SGP4","REF_FRAME":"TEME","INCLINATION":"53.0548","OBJECT_TYPE":"PAYLOAD","GP_ID":"227236954","SITE":"AFETR","PERIOD":"95.591","FILE":"3847542","MEAN_ANOMALY":"247.7751","ECCENTRICITY":"0.00019520","BSTAR":"0.00274700000000","EPHEMERIS_TYPE":"0","CENTER_NAME":"EARTH","RCS_SIZE":"LARGE","PERIAPSIS":"545.787","CLASSIFICATION_TYPE":"U","APOAPSIS":"548.491","MEAN_MOTION_DDOT":"0.0000000000000","ARG_OF_PERICENTER":"112.3445"},{"TIME_SYSTEM":"UTC","MEAN_MOTION_DOT":"0.00047297","LAUNCH_DATE":"2021-04-29","TLE_LINE1":"1 48309U 21036AK  23059.29127528  .00047297  00000-0  31680-2 0  9990","REV_AT_EPOCH":"10156","DECAY_DATE":null,"OBJECT_NAME":"STARLINK-2517","TLE_LINE2":"2 48309  53.0554  13.9500 0001169  75.0077 285.1041 15.06457562101564","ELEMENT_SET_NO":"999","MEAN_MOTION":"15.06457562","SEMIMAJOR_AXIS":"6925.172","NORAD_CAT_ID":"48309","COUNTRY_CODE":"US","OBJECT_ID":"2021-036AK","EPOCH":"2023-02-28T06:59:26.184192","MEAN_ELEMENT_THEORY":"SGP4","REF_FRAME":"TEME","INCLINATION":"53.0554","RA_OF_ASC_NODE":"13.9500","SITE":"AFETR","PERIOD":"95.588","GP_ID":"227237705","OBJECT_TYPE":"PAYLOAD","MEAN_ANOMALY":"285.1041","FILE":"3847542","ECCENTRICITY":"0.00011690","EPHEMERIS_TYPE":"0","BSTAR":"0.00316800000000","RCS_SIZE":"LARGE","CENTER_NAME":"EARTH","CLASSIFICATION_TYPE":"U","PERIAPSIS":"546.228","MEAN_MOTION_DDOT":"0.0000000000000","ARG_OF_PERICENTER":"75.0077","APOAPSIS":"547.847"},{"PERIAPSIS":"546.773","CLASSIFICATION_TYPE":"U","APOAPSIS":"547.291","MEAN_MOTION_DDOT":"0.0000000000000","ARG_OF_PERICENTER":"112.0191","CENTER_NAME":"EARTH","RCS_SIZE":"LARGE","BSTAR":"0.00267190000000","EPHEMERIS_TYPE":"0","FILE":"3847542","MEAN_ANOMALY":"248.0838","ECCENTRICITY":"0.00003740","RA_OF_ASC_NODE":"14.5539","MEAN_ELEMENT_THEORY":"SGP4","REF_FRAME":"TEME","INCLINATION":"53.0556","GP_ID":"227235953","OBJECT_TYPE":"PAYLOAD","SITE":"AFETR","PERIOD":"95.588","COUNTRY_CODE":"US","OBJECT_ID":"2021-036AL","NORAD_CAT_ID":"48310","EPOCH":"2023-02-28T03:43:03.549216","ELEMENT_SET_NO":"999","TLE_LINE2":"2 48310  53.0556  14.5539 0000374 112.0191 248.0838 15.06459389101542","SEMIMAJOR_AXIS":"6925.167","MEAN_MOTION":"15.06459389","MEAN_MOTION_DOT":"0.00039806","TIME_SYSTEM":"UTC","LAUNCH_DATE":"2021-04-29","DECAY_DATE":null,"REV_AT_EPOCH":"10154","OBJECT_NAME":"STARLINK-2536","TLE_LINE1":"1 48310U 21036AL  23059.15490219  .00039806  00000-0  26719-2 0  9991"},{"ELEMENT_SET_NO":"999","TLE_LINE2":"2 48311  53.0563  13.9805 0001035  52.2593 307.8489 15.06448766101561","SEMIMAJOR_AXIS":"6925.199","MEAN_MOTION":"15.06448766","LAUNCH_DATE":"2021-04-29","MEAN_MOTION_DOT":"0.00038785","TIME_SYSTEM":"UTC","DECAY_DATE":null,"OBJECT_NAME":"STARLINK-2534","REV_AT_EPOCH":"10156","TLE_LINE1":"1 48311U 21036AM  23059.28390274  .00038785  00000-0  26050-2 0  9999","RA_OF_ASC_NODE":"13.9805","INCLINATION":"53.0563","MEAN_ELEMENT_THEORY":"SGP4","REF_FRAME":"TEME","OBJECT_TYPE":"PAYLOAD","GP_ID":"227236203","PERIOD":"95.589","SITE":"AFETR","OBJECT_ID":"2021-036AM","COUNTRY_CODE":"US","NORAD_CAT_ID":"48311","EPOCH":"2023-02-28T06:48:49.196736","BSTAR":"0.00260500000000","EPHEMERIS_TYPE":"0","FILE":"3847542","MEAN_ANOMALY":"307.8489","ECCENTRICITY":"0.00010350","PERIAPSIS":"546.347","CLASSIFICATION_TYPE":"U","APOAPSIS":"547.781","ARG_OF_PERICENTER":"52.2593","MEAN_MOTION_DDOT":"0.0000000000000","CENTER_NAME":"EARTH","RCS_SIZE":"LARGE"},{"ECCENTRICITY":"0.00006780","FILE":"3847542","MEAN_ANOMALY":"337.2326","BSTAR":"0.00219100000000","EPHEMERIS_TYPE":"0","RCS_SIZE":"LARGE","CENTER_NAME":"EARTH","APOAPSIS":"547.586","ARG_OF_PERICENTER":"22.8693","MEAN_MOTION_DDOT":"0.0000000000000","PERIAPSIS":"546.647","CLASSIFICATION_TYPE":"U","REV_AT_EPOCH":"10154","DECAY_DATE":null,"OBJECT_NAME":"STARLINK-2061","TLE_LINE1":"1 48312U 21036AN  23059.14752881  .00032532  00000-0  21910-2 0  9995","LAUNCH_DATE":"2021-04-29","TIME_SYSTEM":"UTC","MEAN_MOTION_DOT":"0.00032532","SEMIMAJOR_AXIS":"6925.252","MEAN_MOTION":"15.06431536","ELEMENT_SET_NO":"999","TLE_LINE2":"2 48312  53.0561  14.5913 0000678  22.8693 337.2326 15.06431536101545","EPOCH":"2023-02-28T03:32:26.489184","OBJECT_ID":"2021-036AN","COUNTRY_CODE":"US","NORAD_CAT_ID":"48312","OBJECT_TYPE":"PAYLOAD","GP_ID":"227237455","PERIOD":"95.590","SITE":"AFETR","RA_OF_ASC_NODE":"14.5913","INCLINATION":"53.0561","REF_FRAME":"TEME","MEAN_ELEMENT_THEORY":"SGP4"},{"TIME_SYSTEM":"UTC","MEAN_MOTION_DOT":"0.00012190","LAUNCH_DATE":"2021-04-29","DECAY_DATE":null,"OBJECT_NAME":"STARLINK-2541","REV_AT_EPOCH":"10153","TLE_LINE1":"1 48313U 21036AP  23059.14384535  .00012190  00000-0  83486-3 0  9998","ELEMENT_SET_NO":"999","TLE_LINE2":"2 48313  53.0538  14.6049 0001176  88.4848 271.6275 15.06442834101531","SEMIMAJOR_AXIS":"6925.217","MEAN_MOTION":"15.06442834","COUNTRY_CODE":"US","OBJECT_ID":"2021-036AP","NORAD_CAT_ID":"48313","EPOCH":"2023-02-28T03:27:08.238240","RA_OF_ASC_NODE":"14.6049","MEAN_ELEMENT_THEORY":"SGP4","REF_FRAME":"TEME","INCLINATION":"53.0538","OBJECT_TYPE":"PAYLOAD","GP_ID":"227237205","SITE":"AFETR","PERIOD":"95.589","FILE":"3847542","MEAN_ANOMALY":"271.6275","ECCENTRICITY":"0.00011760","BSTAR":"0.00083486000000","EPHEMERIS_TYPE":"0","CENTER_NAME":"EARTH","RCS_SIZE":"LARGE","PERIAPSIS":"546.268","CLASSIFICATION_TYPE":"U","APOAPSIS":"547.897","MEAN_MOTION_DDOT":"0.0000000000000","ARG_OF_PERICENTER":"88.4848"},{"CENTER_NAME":"EARTH","RCS_SIZE":"LARGE","APOAPSIS":"547.962","MEAN_MOTION_DDOT":"0.0000000000000","ARG_OF_PERICENTER":"110.2175","PERIAPSIS":"546.093","CLASSIFICATION_TYPE":"U","ECCENTRICITY":"0.00013500","FILE":"3847542","MEAN_ANOMALY":"249.8960","BSTAR":"0.00219430000000","EPHEMERIS_TYPE":"0","EPOCH":"2023-02-28T03:21:49.333248","COUNTRY_CODE":"US","OBJECT_ID":"2021-036AQ","NORAD_CAT_ID":"48314","OBJECT_TYPE":"PAYLOAD","GP_ID":"227236454","SITE":"AFETR","PERIOD":"95.588","RA_OF_ASC_NODE":"14.6274","REF_FRAME":"TEME","MEAN_ELEMENT_THEORY":"SGP4","INCLINATION":"53.0547","DECAY_DATE":null,"REV_AT_EPOCH":"10153","OBJECT_NAME":"STARLINK-2549","TLE_LINE1":"1 48314U 21036AQ  23059.14015432  .00032608  00000-0  21943-2 0  9991","MEAN_MOTION_DOT":"0.00032608","TIME_SYSTEM":"UTC","LAUNCH_DATE":"2021-04-29","SEMIMAJOR_AXIS":"6925.162","MEAN_MOTION":"15.06460719","ELEMENT_SET_NO":"999","TLE_LINE2":"2 48314  53.0547  14.6274 0001350 110.2175 249.8960 15.06460719101533"},{"RA_OF_ASC_NODE":"14.6333","MEAN_ELEMENT_THEORY":"SGP4","REF_FRAME":"TEME","INCLINATION":"53.0578","OBJECT_TYPE":"PAYLOAD","GP_ID":"227236704","SITE":"AFETR","PERIOD":"95.590","COUNTRY_CODE":"US","OBJECT_ID":"2021-036AR","NORAD_CAT_ID":"48315","EPOCH":"2023-02-28T03:15:09.563040","ELEMENT_SET_NO":"999","TLE_LINE2":"2 48315  53.0578  14.6333 0001351 100.9048 259.2093 15.06439554101535","SEMIMAJOR_AXIS":"6925.227","MEAN_MOTION":"15.06439554","TIME_SYSTEM":"UTC","MEAN_MOTION_DOT":"0.00012466","LAUNCH_DATE":"2021-04-29","OBJECT_NAME":"STARLINK-2506","DECAY_DATE":null,"REV_AT_EPOCH":"10153","TLE_LINE1":"1 48315U 21036AR  23059.13552735  .00012466  00000-0  85342-3 0  9997","PERIAPSIS":"546.157","CLASSIFICATION_TYPE":"U","APOAPSIS":"548.028","MEAN_MOTION_DDOT":"0.0000000000000","ARG_OF_PERICENTER":"100.9048","CENTER_NAME":"EARTH","RCS_SIZE":"LARGE","BSTAR":"0.00085342000000","EPHEMERIS_TYPE":"0","FILE":"3847542","MEAN_ANOMALY":"259.2093","ECCENTRICITY":"0.00013510"},{"ELEMENT_SET_NO":"999","TLE_LINE2":"2 48316  53.0559  14.0598 0001630  96.5085 263.6089 15.06468591101552","SEMIMAJOR_AXIS":"6925.138","MEAN_MOTION":"15.06468591","MEAN_MOTION_DOT":"0.00034122","TIME_SYSTEM":"UTC","LAUNCH_DATE":"2021-04-29","DECAY_DATE":null,"REV_AT_EPOCH":"10155","OBJECT_NAME":"STARLINK-2507","TLE_LINE1":"1 48316U 21036AS  23059.26547532  .00034122  00000-0  22943-2 0  9991","RA_OF_ASC_NODE":"14.0598","REF_FRAME":"TEME","MEAN_ELEMENT_THEORY":"SGP4","INCLINATION":"53.0559","OBJECT_TYPE":"PAYLOAD","GP_ID":"227236955","SITE":"AFETR","PERIOD":"95.588","COUNTRY_CODE":"US","OBJECT_ID":"2021-036AS","NORAD_CAT_ID":"48316","EPOCH":"2023-02-28T06:22:17.067648","BSTAR":"0.00229430000000","EPHEMERIS_TYPE":"0","FILE":"3847542","MEAN_ANOMALY":"263.6089","ECCENTRICITY":"0.00016300","PERIAPSIS":"545.875","CLASSIFICATION_TYPE":"U","APOAPSIS":"548.132","MEAN_MOTION_DDOT":"0.0000000000000","ARG_OF_PERICENTER":"96.5085","CENTER_NAME":"EARTH","RCS_SIZE":"LARGE"},{"ECCENTRICITY":"0.00019550","FILE":"3847542","MEAN_ANOMALY":"282.9901","BSTAR":"0.00218510000000","EPHEMERIS_TYPE":"0","CENTER_NAME":"EARTH","RCS_SIZE":"LARGE","APOAPSIS":"548.512","ARG_OF_PERICENTER":"77.1306","MEAN_MOTION_DDOT":"0.0000000000000","PERIAPSIS":"545.804","CLASSIFICATION_TYPE":"U","REV_AT_EPOCH":"10153","DECAY_DATE":null,"OBJECT_NAME":"STARLINK-2513","TLE_LINE1":"1 48317U 21036AT  23059.12910498  .00032432  00000-0  21851-2 0  9991","LAUNCH_DATE":"2021-04-29","TIME_SYSTEM":"UTC","MEAN_MOTION_DOT":"0.00032432","SEMIMAJOR_AXIS":"6925.293","MEAN_MOTION":"15.06418211","ELEMENT_SET_NO":"999","TLE_LINE2":"2 48317  53.0573  14.6719 0001955  77.1306 282.9901 15.06418211101530","EPOCH":"2023-02-28T03:05:54.670272","OBJECT_ID":"2021-036AT","COUNTRY_CODE":"US","NORAD_CAT_ID":"48317","GP_ID":"227237706","OBJECT_TYPE":"PAYLOAD","PERIOD":"95.591","SITE":"AFETR","RA_OF_ASC_NODE":"14.6719","INCLINATION":"53.0573","REF_FRAME":"TEME","MEAN_ELEMENT_THEORY":"SGP4"}];
